[
	{
		"serv_area_id": "LA-10",
		"state": "LA",
		"Org_ID": "619051",
		"Program_Name": "Acadiana Legal Service Corporation",
		"Addr1": "1020 Surrey Street",
		"Addr2": "P.O. Box 4823",
		"City": "Lafayette",
		"State": "LA",
		"Zip": "70502-4823",
		"": "http://www.la-law.org/"
	},
	{
		"serv_area_id": "AK-1",
		"state": "AK",
		"Org_ID": "902000",
		"Program_Name": "Alaska Legal Services Corporation",
		"Addr1": "1016 W. 6th Avenue",
		"Addr2": "Suite 200",
		"City": "Anchorage",
		"State": "AK",
		"Zip": "99501-0963",
		"": "http://www.alsc-law.org/"
	},
	{
		"serv_area_id": "KY-5",
		"state": "KY",
		"Org_ID": "618030",
		"Program_Name": "Appalachian Research and Defense Fund of Kentucky",
		"Addr1": "120 North Front Avenue",
		"Addr2": "",
		"City": "Prestonsburg",
		"State": "KY",
		"Zip": "41653",
		"": ""
	},
	{
		"serv_area_id": "GA-1",
		"state": "GA",
		"Org_ID": "611010",
		"Program_Name": "Atlanta Legal Aid Society, Inc.",
		"Addr1": "151 Spring Street, N.W.",
		"Addr2": "",
		"City": "Atlanta",
		"State": "GA",
		"Zip": "30303-2097",
		"": "http://www.ardfky.org/"
	},
	{
		"serv_area_id": "CA-28",
		"state": "CA",
		"Org_ID": "805270",
		"Program_Name": "Bay Area Legal Aid",
		"Addr1": "1735 Telegraph Avenue",
		"Addr2": "",
		"City": "Oakland",
		"State": "CA",
		"Zip": "94612",
		"": "http://www.atlantalegalaid.org/"
	},
	{
		"serv_area_id": "FL-16",
		"state": "FL",
		"Org_ID": "610050",
		"Program_Name": "Bay Area Legal Services, Inc.",
		"Addr1": "1302 N. 19th Street",
		"Addr2": "Suite 400",
		"City": "Tampa",
		"State": "FL",
		"Zip": "33605",
		"": "http://www.baylegal.org/"
	},
	{
		"serv_area_id": "VA-19",
		"state": "VA",
		"Org_ID": "447081",
		"Program_Name": "Blue Ridge Legal Services, Inc.",
		"Addr1": "204 North High Street",
		"Addr2": "P.O. Box 551",
		"City": "Harrisonburg",
		"State": "VA",
		"Zip": "22803",
		"": "http://www.bals.org/"
	},
	{
		"serv_area_id": "CA-1",
		"state": "CA",
		"Org_ID": "705158",
		"Program_Name": "California Indian Legal Services, Inc.",
		"Addr1": "609 S. Escondido Blvd.",
		"Addr2": "",
		"City": "Escondido",
		"State": "CA",
		"Zip": "92025",
		"": "http://www.brls.org/"
	},
	{
		"serv_area_id": "CA-31",
		"state": "CA",
		"Org_ID": "805260",
		"Program_Name": "California Rural Legal Assistance, Inc.",
		"Addr1": "631 Howard Street",
		"Addr2": "Suite 300",
		"City": "San Francisco",
		"State": "CA",
		"Zip": "94105-3907",
		"": "http://www.calindian.org/"
	},
	{
		"serv_area_id": "AR-7",
		"state": "AR",
		"Org_ID": "604061",
		"Program_Name": "Center for Arkansas Legal Services",
		"Addr1": "1300 W. 6th Street",
		"Addr2": "",
		"City": "Little Rock",
		"State": "AR",
		"Zip": "72201-3593",
		"": "http://www.crla.org/"
	},
	{
		"serv_area_id": "CA-26",
		"state": "CA",
		"Org_ID": "805060",
		"Program_Name": "Central California Legal Services",
		"Addr1": "2115 Kern Street",
		"Addr2": "Suite 1",
		"City": "Fresno",
		"State": "CA",
		"Zip": "93721",
		"": "http://www.arlegalservices.org/"
	},
	{
		"serv_area_id": "NJ-17",
		"state": "NJ",
		"Org_ID": "331110",
		"Program_Name": "Central Jersey Legal Services, Inc.",
		"Addr1": "317 George Street",
		"Addr2": "Suite 201",
		"City": "New Brunswick",
		"State": "NJ",
		"Zip": "08901-2006",
		"": "http://www.centralcallegal.org/"
	},
	{
		"serv_area_id": "MN-6",
		"state": "MN",
		"Org_ID": "524020",
		"Program_Name": "Central Minnesota Legal Services, Inc.",
		"Addr1": "430 First Avenue North",
		"Addr2": "Suite 359",
		"City": "Minneapolis",
		"State": "MN",
		"Zip": "55401-1780",
		"": "http://www.lsnj.org/cjls/index.htm"
	},
	{
		"serv_area_id": "VA-18",
		"state": "VA",
		"Org_ID": "447030",
		"Program_Name": "Central Virginia Legal Aid Society, Inc.",
		"Addr1": "101 West Broad St., Suite 101",
		"Addr2": "P.O. Box 12206",
		"City": "Richmond",
		"State": "VA",
		"Zip": "23241-2206",
		"": "http://www.centralmnlegal.org"
	},
	{
		"serv_area_id": "FL-18",
		"state": "FL",
		"Org_ID": "610090",
		"Program_Name": "Coast to Coast Legal Aid of South Florida,  Inc.",
		"Addr1": "491 North State Road 7",
		"Addr2": "",
		"City": "Plantation",
		"State": "FL",
		"Zip": "33317",
		"": "http://www.cvlas.org/"
	},
	{
		"serv_area_id": "CO-6",
		"state": "CO",
		"Org_ID": "706060",
		"Program_Name": "Colorado Legal Services",
		"Addr1": "1905 Sherman Street",
		"Addr2": "Suite 400",
		"City": "Denver",
		"State": "CO",
		"Zip": "80203",
		"": "http://www.coasttocoastlegalaid.org"
	},
	{
		"serv_area_id": "PR-2",
		"state": "PR",
		"Org_ID": "253030",
		"Program_Name": "Community Law Office, Inc.",
		"Addr1": "170 Calle Federico Costa",
		"Addr2": "Box 194735",
		"City": "San Juan",
		"State": "PR",
		"Zip": "00919-4735",
		"": "http://www.coloradolegalservices.org/co/homepage.html"
	},
	{
		"serv_area_id": "OH-20",
		"state": "OH",
		"Org_ID": "436030",
		"Program_Name": "Community Legal Aid Services, Inc.",
		"Addr1": "50 South Main Street",
		"Addr2": "",
		"City": "Akron",
		"State": "OH",
		"Zip": "44308",
		"": "http://oficinalegaldelacomunidad.org/"
	},
	{
		"serv_area_id": "FL-15",
		"state": "FL",
		"Org_ID": "610010",
		"Program_Name": "Community Legal Services of Mid-Florida, Inc.",
		"Addr1": "128 Orange Avenue",
		"Addr2": "Suite 300",
		"City": "Daytona Beach",
		"State": "FL",
		"Zip": "32114-4310",
		"": "http://www.communitylegalaid.org/"
	},
	{
		"serv_area_id": "AZ-3",
		"state": "AZ",
		"Org_ID": "703030",
		"Program_Name": "Community Legal Services, Inc.",
		"Addr1": "305 South 2nd Avenue",
		"Addr2": "PO Box 21538",
		"City": "Phoenix",
		"State": "AZ",
		"Zip": "85036-1538",
		"": "http://www.clsmf.org/"
	},
	{
		"serv_area_id": "SD-4",
		"state": "SD",
		"Org_ID": "742018",
		"Program_Name": "Dakota Plains Legal Services, Inc.",
		"Addr1": "160 Second Street",
		"Addr2": "P.O. Box 727",
		"City": "Mission",
		"State": "SD",
		"Zip": "57555-0727",
		"": "http://www.clsaz.org"
	},
	{
		"serv_area_id": "AZ-2",
		"state": "AZ",
		"Org_ID": "703068",
		"Program_Name": "DNA-Peoples Legal Services, Inc.",
		"Addr1": "Route 12, Highway 264",
		"Addr2": "P.O. Box 306",
		"City": "Window Rock",
		"State": "AZ",
		"Zip": "86515-0306",
		"": "http://www.helpsouthdakota.com/homeDPLS"
	},
	{
		"serv_area_id": "NM-1",
		"state": "NM",
		"Org_ID": "703068",
		"Program_Name": "DNA-Peoples Legal Services, Inc.",
		"Addr1": "Route 12, Highway 264",
		"Addr2": "P.O. Box 306",
		"City": "Window Rock",
		"State": "AZ",
		"Zip": "86515-0306",
		"": "http://www.helpsouthdakota.com/homeDPLS"
	},
	{
		"serv_area_id": "SD-2",
		"state": "SD",
		"Org_ID": "542026",
		"Program_Name": "East River Legal Services",
		"Addr1": "335 North Main Ave.",
		"Addr2": "Suite 300",
		"City": "Sioux Falls",
		"State": "SD",
		"Zip": "57104",
		"": "http://www.dnalegalservices.org"
	},
	{
		"serv_area_id": "NJ-8",
		"state": "NJ",
		"Org_ID": "331060",
		"Program_Name": "Essex-Newark Legal Services Project, Inc.",
		"Addr1": "5 Commerce Street",
		"Addr2": "2nd Floor",
		"City": "Newark",
		"State": "NJ",
		"Zip": "7102",
		"": "http://www.erls.org"
	},
	{
		"serv_area_id": "FL-17",
		"state": "FL",
		"Org_ID": "610020",
		"Program_Name": "Florida Rural Legal Services, Inc.",
		"Addr1": "1321 E. Memorial Boulevard",
		"Addr2": "",
		"City": "Lakeland",
		"State": "FL",
		"Zip": "33801",
		"": "http://www.lsnj.org/directory.htm"
	},
	{
		"serv_area_id": "GA-2",
		"state": "GA",
		"Org_ID": "611020",
		"Program_Name": "Georgia Legal Services Program",
		"Addr1": "104 Marietta Street",
		"Addr2": "Suite 250",
		"City": "Atlanta",
		"State": "GA",
		"Zip": "30303-2848",
		"": "http://www.frls.org/"
	},
	{
		"serv_area_id": "CA-2",
		"state": "CA",
		"Org_ID": "805010",
		"Program_Name": "Greater Bakersfield Legal Assistance, Inc.",
		"Addr1": "615 California Avenue",
		"Addr2": "",
		"City": "Bakersfield",
		"State": "CA",
		"Zip": "93304",
		"": "http://www.glsp.org/"
	},
	{
		"serv_area_id": "GU-1",
		"state": "GU",
		"Org_ID": "960007",
		"Program_Name": "Guam Legal Services Corporation",
		"Addr1": "113 Bradley Place",
		"Addr2": "",
		"City": "Hagatna",
		"State": "GU",
		"Zip": "96910-4911",
		"": "http://gbla.org/ez.php?Page=3226"
	},
	{
		"serv_area_id": "ID-1",
		"state": "ID",
		"Org_ID": "913000",
		"Program_Name": "Idaho Legal Aid Services, Inc.",
		"Addr1": "310 North Fifth Street",
		"Addr2": "",
		"City": "Boise",
		"State": "ID",
		"Zip": "83702-5907",
		"": "http://www.lawhelp.org/GU/StateAboutUs.cfm/"
	},
	{
		"serv_area_id": "IN-5",
		"state": "IN",
		"Org_ID": "515030",
		"Program_Name": "Indiana Legal Services, Inc.",
		"Addr1": "Market Square Ctr., Suite 1850",
		"Addr2": "151 North Delaware Street",
		"City": "Indianapolis",
		"State": "IN",
		"Zip": "46204-2523",
		"": "http://www.idaholegalaid.org"
	},
	{
		"serv_area_id": "CA-12",
		"state": "CA",
		"Org_ID": "805230",
		"Program_Name": "Inland Counties Legal Services, Inc.",
		"Addr1": "1040 Iowa Avenue",
		"Addr2": "Suite 101",
		"City": "Riverside",
		"State": "CA",
		"Zip": "92507-4219",
		"": "http://www.indianalegalservices.org/"
	},
	{
		"serv_area_id": "IA-3",
		"state": "IA",
		"Org_ID": "516006",
		"Program_Name": "Iowa Legal Aid",
		"Addr1": "1111 Ninth Street",
		"Addr2": "Suite 230",
		"City": "Des Moines",
		"State": "IA",
		"Zip": "50314-2527",
		"": "http://www.inlandlegal.org/"
	},
	{
		"serv_area_id": "KS-1",
		"state": "KS",
		"Org_ID": "517001",
		"Program_Name": "Kansas Legal Services, Inc.",
		"Addr1": "712 S. Kansas Ave., Ste. 200",
		"Addr2": "",
		"City": "Topeka",
		"State": "KS",
		"Zip": "66603",
		"": "http://www.iowalegalaid.org/ia/homepage.html"
	},
	{
		"serv_area_id": "KY-9",
		"state": "KY",
		"Org_ID": "618036",
		"Program_Name": "Kentucky Legal Aid",
		"Addr1": "1700 Destiny Lane",
		"Addr2": "",
		"City": "Bowling Green",
		"State": "KY",
		"Zip": "42104",
		"": "http://www.kansaslegalservices.org/"
	},
	{
		"serv_area_id": "IL-6",
		"state": "IL",
		"Org_ID": "514020",
		"Program_Name": "LAF (Legal Assistance Foundation of Metropolitan Chicago)",
		"Addr1": "120 S. LaSalle Street",
		"Addr2": "Suite 900",
		"City": "Chicago",
		"State": "IL",
		"Zip": "60603-3425",
		"": "http://www.klaid.org/"
	},
	{
		"serv_area_id": "IL-3",
		"state": "IL",
		"Org_ID": "514050",
		"Program_Name": "Land of Lincoln Legal Assistance Foundation, Inc.",
		"Addr1": "8787 State Street",
		"Addr2": "Suite 201",
		"City": "East St. Louis",
		"State": "IL",
		"Zip": "62203",
		"": "http://www.lafchicago.org/"
	},
	{
		"serv_area_id": "PA-5",
		"state": "PA",
		"Org_ID": "339026",
		"Program_Name": "Laurel Legal Services, Inc.",
		"Addr1": "306 South Pennsylvania Avenue",
		"Addr2": "",
		"City": "Greensburg",
		"State": "PA",
		"Zip": "15601-3066",
		"": "http://www.lollaf.org/"
	},
	{
		"serv_area_id": "WI-5",
		"state": "WI",
		"Org_ID": "550010",
		"Program_Name": "Legal Action of Wisconsin, Inc.",
		"Addr1": "230 West Wells St.",
		"Addr2": "Room 800",
		"City": "Milwaukee",
		"State": "WI",
		"Zip": "53203-1866",
		"": "http://www.palegalservices.org/finder/laurel_legal_services.htm"
	},
	{
		"serv_area_id": "NH-1",
		"state": "NH",
		"Org_ID": "130010",
		"Program_Name": "Legal Advice & Referral Center, Inc.",
		"Addr1": "48 South Main Street",
		"Addr2": "",
		"City": "Concord",
		"State": "NH",
		"Zip": "03301-4823",
		"": "http://www.legalaction.org"
	},
	{
		"serv_area_id": "MI-13",
		"state": "MI",
		"Org_ID": "423148",
		"Program_Name": "Legal Aid and Defender Association, Inc.",
		"Addr1": "613 Abbott Street",
		"Addr2": "",
		"City": "Detroit",
		"State": "MI",
		"Zip": "48226-4216",
		"": "http://www.nhlegalaid.org/LARC"
	},
	{
		"serv_area_id": "MD-1",
		"state": "MD",
		"Org_ID": "321016",
		"Program_Name": "Legal Aid Bureau, Inc.",
		"Addr1": "500 East Lexington Street",
		"Addr2": "",
		"City": "Baltimore",
		"State": "MD",
		"Zip": "21202",
		"": "http://www.ladadetroit.org/"
	},
	{
		"serv_area_id": "CA-29",
		"state": "CA",
		"Org_ID": "805080",
		"Program_Name": "Legal Aid Foundation of Los Angeles",
		"Addr1": "1102 South Crenshaw Boulevard",
		"Addr2": "",
		"City": "Los Angeles",
		"State": "CA",
		"Zip": "90019-3111",
		"": "http://www.mdlab.org/"
	},
	{
		"serv_area_id": "AR-6",
		"state": "AR",
		"Org_ID": "604020",
		"Program_Name": "Legal Aid of Arkansas, Inc.",
		"Addr1": "714 South Main Street",
		"Addr2": "",
		"City": "Jonesboro",
		"State": "AR",
		"Zip": "72401",
		"": "http://www.lafla.org/"
	},
	{
		"serv_area_id": "TN-9",
		"state": "TN",
		"Org_ID": "643020",
		"Program_Name": "Legal Aid of East Tennessee",
		"Addr1": "502 South Gay St.",
		"Addr2": "Suite 404",
		"City": "Knoxville",
		"State": "TN",
		"Zip": "37902-1502",
		"": "http://www.arlegalservices.org/"
	},
	{
		"serv_area_id": "NE-4",
		"state": "NE",
		"Org_ID": "528020",
		"Program_Name": "Legal Aid of Nebraska",
		"Addr1": "1904 Farnam Street",
		"Addr2": "Ste. 500",
		"City": "Omaha",
		"State": "NE",
		"Zip": "68102-2533",
		"": "http://www.laet.org/"
	},
	{
		"serv_area_id": "NC-5",
		"state": "NC",
		"Org_ID": "634032",
		"Program_Name": "Legal Aid of North Carolina, Inc.",
		"Addr1": "224 South Dawson St.",
		"Addr2": "",
		"City": "Raleigh",
		"State": "NC",
		"Zip": "27611-6087",
		"": "http://www.legalaidofnebraska.com"
	},
	{
		"serv_area_id": "TX-14",
		"state": "TX",
		"Org_ID": "744050",
		"Program_Name": "Legal Aid of NorthWest Texas",
		"Addr1": "600 East Weatherford Street",
		"Addr2": "",
		"City": "Fort Worth",
		"State": "TX",
		"Zip": "76102",
		"": "http://www.legalaidnc.org/"
	},
	{
		"serv_area_id": "PA-23",
		"state": "PA",
		"Org_ID": "339141",
		"Program_Name": "Legal Aid of Southeastern Pennsylvania",
		"Addr1": "625-627 Swede Street",
		"Addr2": "",
		"City": "Norristown",
		"State": "PA",
		"Zip": "19401-4801",
		"": "http://www.lanwt.org/"
	},
	{
		"serv_area_id": "KY-10",
		"state": "KY",
		"Org_ID": "618004",
		"Program_Name": "Legal Aid of the Bluegrass",
		"Addr1": "104 East Seventh Street",
		"Addr2": "",
		"City": "Covington",
		"State": "KY",
		"Zip": "41011-1740",
		"": "http://www.lasp.org"
	},
	{
		"serv_area_id": "WV-5",
		"state": "WV",
		"Org_ID": "449041",
		"Program_Name": "Legal Aid of West Virginia, Inc.",
		"Addr1": "922 Quarrier Street",
		"Addr2": "4th Floor",
		"City": "Charleston",
		"State": "WV",
		"Zip": "25301",
		"": "http://www.lablaw.org"
	},
	{
		"serv_area_id": "MI-15",
		"state": "MI",
		"Org_ID": "423141",
		"Program_Name": "Legal Aid of Western Michigan",
		"Addr1": "Cornerstone Bldg., Suite 400",
		"Addr2": "89 Ionia Avenue, NW",
		"City": "Grand Rapids",
		"State": "MI",
		"Zip": "49503",
		"": "http://www.lawv.net"
	},
	{
		"serv_area_id": "MO-3",
		"state": "MO",
		"Org_ID": "526010",
		"Program_Name": "Legal Aid of Western Missouri",
		"Addr1": "1125 Grand Avenue",
		"Addr2": "Suite 1900",
		"City": "Kansas City",
		"State": "MO",
		"Zip": "64106",
		"": "http://www.michiganlegalaid.org/"
	},
	{
		"serv_area_id": "OH-23",
		"state": "OH",
		"Org_ID": "436183",
		"Program_Name": "Legal Aid of Western Ohio, Inc.",
		"Addr1": "525 Jefferson Avenue",
		"Addr2": "Suite 400",
		"City": "Toledo",
		"State": "OH",
		"Zip": "43604-1371",
		"": "http://www.lawmo.org/"
	},
	{
		"serv_area_id": "WY-4",
		"state": "WY",
		"Org_ID": "951050",
		"Program_Name": "Legal Aid of Wyoming, Inc.",
		"Addr1": "211 W. 19th Street",
		"Addr2": "Suite 300",
		"City": "Cheyenne",
		"State": "WY",
		"Zip": "82001",
		"": "http://www.lawolaw.org"
	},
	{
		"serv_area_id": "MN-1",
		"state": "MN",
		"Org_ID": "524006",
		"Program_Name": "Legal Aid Service of Northeastern Minnesota",
		"Addr1": "302 Ordean Building",
		"Addr2": "424 West Superior Street",
		"City": "Duluth",
		"State": "MN",
		"Zip": "55802",
		"": "http://www.lawyoming.org"
	},
	{
		"serv_area_id": "OK-3",
		"state": "OK",
		"Org_ID": "737066",
		"Program_Name": "Legal Aid Services of Oklahoma, Inc.",
		"Addr1": "2915 North Classen Boulevard",
		"Addr2": "Suite 500",
		"City": "Oklahoma City",
		"State": "OK",
		"Zip": "73106",
		"": "http://www.lasnem.org/"
	},
	{
		"serv_area_id": "OR-6",
		"state": "OR",
		"Org_ID": "938004",
		"Program_Name": "Legal Aid Services of Oregon",
		"Addr1": "921 SW Washington",
		"Addr2": "Suite 570",
		"City": "Portland",
		"State": "OR",
		"Zip": "97205",
		"": "http://www.legalaidok.org/"
	},
	{
		"serv_area_id": "KY-2",
		"state": "KY",
		"Org_ID": "618010",
		"Program_Name": "Legal Aid Society",
		"Addr1": "416 West Muhammad Ali Blvd.",
		"Addr2": "Suite 300",
		"City": "Louisville",
		"State": "KY",
		"Zip": "40202-2354",
		"": "http://www.lasoregon.org"
	},
	{
		"serv_area_id": "VA-16",
		"state": "VA",
		"Org_ID": "447026",
		"Program_Name": "Legal Aid Society of Eastern Virginia",
		"Addr1": "125 St. Paul's Boulevard",
		"Addr2": "Suite 400",
		"City": "Norfolk",
		"State": "VA",
		"Zip": "23510",
		"": "http://www.laslou.org/"
	},
	{
		"serv_area_id": "OH-18",
		"state": "OH",
		"Org_ID": "436040",
		"Program_Name": "Legal Aid Society of Greater Cincinnati",
		"Addr1": "215 East Ninth Street",
		"Addr2": "Suite 200",
		"City": "Cincinnati",
		"State": "OH",
		"Zip": "45202",
		"": "http://www.laseva.org/"
	},
	{
		"serv_area_id": "HI-1",
		"state": "HI",
		"Org_ID": "912000",
		"Program_Name": "Legal Aid Society of Hawaii",
		"Addr1": "924 Bethel Street",
		"Addr2": "",
		"City": "Honolulu",
		"State": "HI",
		"Zip": "96813",
		"": "http://www.lascinti.org/"
	},
	{
		"serv_area_id": "NY-22",
		"state": "NY",
		"Org_ID": "233150",
		"Program_Name": "Legal Aid Society of Mid-New York, Inc.",
		"Addr1": "255 Genesee Street",
		"Addr2": "2nd Floor",
		"City": "Utica",
		"State": "NY",
		"Zip": "13501",
		"": "http://www.legalaidhawaii.org/"
	},
	{
		"serv_area_id": "TN-10",
		"state": "TN",
		"Org_ID": "643040",
		"Program_Name": "Legal Aid Society of Middle Tennessee and the Cumberlands",
		"Addr1": "300 Deaderick Street",
		"Addr2": "",
		"City": "Nashville",
		"State": "TN",
		"Zip": "37201-1103",
		"": "http://www.lasmny.org/"
	},
	{
		"serv_area_id": "NY-21",
		"state": "NY",
		"Org_ID": "233010",
		"Program_Name": "Legal Aid Society of Northeastern New York, Inc.",
		"Addr1": "55 Colvin Avenue",
		"Addr2": "",
		"City": "Albany",
		"State": "NY",
		"Zip": "12206",
		"": "http://www.las.org/"
	},
	{
		"serv_area_id": "CA-19",
		"state": "CA",
		"Org_ID": "805310",
		"Program_Name": "Legal Aid Society of Orange County, Inc.",
		"Addr1": "2101 N. Tustin Ave.",
		"Addr2": "",
		"City": "Santa Ana",
		"State": "CA",
		"Zip": "92705",
		"": "http://www.lasnny.org/"
	},
	{
		"serv_area_id": "CA-14",
		"state": "CA",
		"Org_ID": "805250",
		"Program_Name": "Legal Aid Society of San Diego, Inc.",
		"Addr1": "110 South Euclid Avenue",
		"Addr2": "",
		"City": "San Diego",
		"State": "CA",
		"Zip": "92114",
		"": "http://www.legal-aid.com/"
	},
	{
		"serv_area_id": "NY-23",
		"state": "NY",
		"Org_ID": "233130",
		"Program_Name": "Legal Assistance of Western New York, Inc.",
		"Addr1": "361 South Main Street",
		"Addr2": "",
		"City": "Geneva",
		"State": "NY",
		"Zip": "14456",
		"": "http://www.lassd.org/"
	},
	{
		"serv_area_id": "AL-4",
		"state": "AL",
		"Org_ID": "601037",
		"Program_Name": "Legal Services Alabama, Inc.",
		"Addr1": "207 Montgomery St.",
		"Addr2": "Suite 1200",
		"City": "Montgomery",
		"State": "AL",
		"Zip": "36104-3537",
		"": "http://www.lawny.org"
	},
	{
		"serv_area_id": "DE-1",
		"state": "DE",
		"Org_ID": "308010",
		"Program_Name": "Legal Services Corporation of Delaware, Inc.",
		"Addr1": "100 West 10th Street",
		"Addr2": "Suite 203",
		"City": "Wilmington",
		"State": "DE",
		"Zip": "19801",
		"": "http://www.legalservicesalabama.org/"
	},
	{
		"serv_area_id": "VT-1",
		"state": "VT",
		"Org_ID": "146010",
		"Program_Name": "Legal Services Law Line of Vermont, Inc.",
		"Addr1": "274  North Winooski Avenue",
		"Addr2": "",
		"City": "Burlington",
		"State": "VT",
		"Zip": "5401",
		"": "http://www.lscd.com"
	},
	{
		"serv_area_id": "NY-9",
		"state": "NY",
		"Org_ID": "233100",
		"Program_Name": "Legal Services NYC",
		"Addr1": "40 Worth Street",
		"Addr2": "Suite 606",
		"City": "New York",
		"State": "NY",
		"Zip": "10013-9998",
		"": "http://www.vtlegalaid.org/"
	},
	{
		"serv_area_id": "MI-14",
		"state": "MI",
		"Org_ID": "423060",
		"Program_Name": "Legal Services of Eastern Michigan",
		"Addr1": "436 South Saginaw Street",
		"Addr2": "",
		"City": "Flint",
		"State": "MI",
		"Zip": "48502",
		"": "http://www.legalservicesnyc.org"
	},
	{
		"serv_area_id": "MO-4",
		"state": "MO",
		"Org_ID": "526020",
		"Program_Name": "Legal Services of Eastern Missouri, Inc.",
		"Addr1": "4232 Forest Park Avenue",
		"Addr2": "",
		"City": "St. Louis",
		"State": "MO",
		"Zip": "63108",
		"": "http://www.lsem-mi.org/"
	},
	{
		"serv_area_id": "FL-5",
		"state": "FL",
		"Org_ID": "610040",
		"Program_Name": "Legal Services of Greater Miami, Inc.",
		"Addr1": "3000 Biscayne Boulevard",
		"Addr2": "Suite 500",
		"City": "Miami",
		"State": "FL",
		"Zip": "33137-4129",
		"": "http://www.lsem.org/"
	},
	{
		"serv_area_id": "ND-3",
		"state": "ND",
		"Org_ID": "535007",
		"Program_Name": "Legal Services of North Dakota",
		"Addr1": "1025 Third Street North",
		"Addr2": "P.O. Box 1893",
		"City": "Bismarck",
		"State": "ND",
		"Zip": "58502-1893",
		"": "http://www.lsgmi.org/"
	},
	{
		"serv_area_id": "FL-13",
		"state": "FL",
		"Org_ID": "610044",
		"Program_Name": "Legal Services of North Florida, Inc.",
		"Addr1": "2119 Delta Boulevard",
		"Addr2": "",
		"City": "Tallahassee",
		"State": "FL",
		"Zip": "32303-4209",
		"": "http://www.legalassist.org/"
	},
	{
		"serv_area_id": "LA-11",
		"state": "LA",
		"Org_ID": "619061",
		"Program_Name": "Legal Services of North Louisiana, Inc.",
		"Addr1": "720 Travis Street",
		"Addr2": "",
		"City": "Shreveport",
		"State": "LA",
		"Zip": "71101",
		"": "http://www.lsnf.org/"
	},
	{
		"serv_area_id": "CA-27",
		"state": "CA",
		"Org_ID": "805240",
		"Program_Name": "Legal Services of Northern California, Inc.",
		"Addr1": "517 Twelfth Street",
		"Addr2": "",
		"City": "Sacramento",
		"State": "CA",
		"Zip": "95814",
		"": "http://www.lsnl.org/"
	},
	{
		"serv_area_id": "MI-9",
		"state": "MI",
		"Org_ID": "423130",
		"Program_Name": "Legal Services of Northern Michigan, Inc.",
		"Addr1": "1349 S. Otsego Avenue Unit 7B",
		"Addr2": "Parkside Mini-Mall",
		"City": "Gaylord",
		"State": "MI",
		"Zip": "49735",
		"": "http://www.lsnc.net/"
	},
	{
		"serv_area_id": "VA-20",
		"state": "VA",
		"Org_ID": "447007",
		"Program_Name": "Legal Services of Northern Virginia, Inc.",
		"Addr1": "4080 Chain Bridge Road",
		"Addr2": "1st Floor",
		"City": "Fairfax",
		"State": "VA",
		"Zip": "22030",
		"": "http://www.lsnm.org/"
	},
	{
		"serv_area_id": "NJ-15",
		"state": "NJ",
		"Org_ID": "331016",
		"Program_Name": "Legal Services of Northwest Jersey",
		"Addr1": "34 West Main Street",
		"Addr2": "Suite 301",
		"City": "Somerville",
		"State": "NJ",
		"Zip": "08876-2218",
		"": "http://www.lsnv.org"
	},
	{
		"serv_area_id": "MN-4",
		"state": "MN",
		"Org_ID": "524027",
		"Program_Name": "Legal Services of Northwest Minnesota Corporation",
		"Addr1": "1015 7th Avenue North",
		"Addr2": "P.O. Box 838",
		"City": "Moorhead",
		"State": "MN",
		"Zip": "56561-0838",
		"": "http://www.lsnj.org/lsnwj/index.htm"
	},
	{
		"serv_area_id": "MI-12",
		"state": "MI",
		"Org_ID": "423010",
		"Program_Name": "Legal Services of South Central Michigan",
		"Addr1": "420 North Fourth Avenue",
		"Addr2": "",
		"City": "Ann Arbor",
		"State": "MI",
		"Zip": "48104-1197",
		"": "http://www.lsnmlaw.org/"
	},
	{
		"serv_area_id": "MO-7",
		"state": "MO",
		"Org_ID": "526051",
		"Program_Name": "Legal Services of Southern Missouri",
		"Addr1": "809 N. Campbell Avenue",
		"Addr2": "",
		"City": "Springfield",
		"State": "MO",
		"Zip": "65802",
		"": "http://www.lsscm.org/"
	},
	{
		"serv_area_id": "NY-20",
		"state": "NY",
		"Org_ID": "233160",
		"Program_Name": "Legal Services of the Hudson Valley",
		"Addr1": "90 Maple Avenue",
		"Addr2": "",
		"City": "White Plains",
		"State": "NY",
		"Zip": "10601",
		"": "http://www.lsosm.org"
	},
	{
		"serv_area_id": "VI-1",
		"state": "VI",
		"Org_ID": "254000",
		"Program_Name": "Legal Services of the Virgin Islands, Inc.",
		"Addr1": "3017 Orange Grove",
		"Addr2": "",
		"City": "Christiansted",
		"State": "VI",
		"Zip": "00820-4375",
		"": "http://www.lshv.org/"
	},
	{
		"serv_area_id": "TX-13",
		"state": "TX",
		"Org_ID": "744060",
		"Program_Name": "Lone Star Legal Aid",
		"Addr1": "1415 Fannin Street",
		"Addr2": "",
		"City": "Houston",
		"State": "TX",
		"Zip": "77002",
		"": "http://www.legalservicesvi.org"
	},
	{
		"serv_area_id": "MA-10",
		"state": "MA",
		"Org_ID": "122107",
		"Program_Name": "Massachusetts Justice Project, Inc.",
		"Addr1": "57 Suffolk Street",
		"Addr2": "Suite 401",
		"City": "Holyoke",
		"State": "MA",
		"Zip": "1040",
		"": "http://www.lonestarlegal.org/"
	},
	{
		"serv_area_id": "TN-4",
		"state": "TN",
		"Org_ID": "643030",
		"Program_Name": "Memphis Area Legal Services, Inc.",
		"Addr1": "109 North Main Street",
		"Addr2": "Claridge House, Suite 200",
		"City": "Memphis",
		"State": "TN",
		"Zip": "38103-5013",
		"": "http://www.masslegalhelp.org/"
	},
	{
		"serv_area_id": "MA-4",
		"state": "MA",
		"Org_ID": "122090",
		"Program_Name": "Merrimack Valley Legal Services, Inc.",
		"Addr1": "35 John Street, Suite 302",
		"Addr2": "",
		"City": "Lowell",
		"State": "MA",
		"Zip": "01852-1101",
		"": "http://www.malsi.org/"
	},
	{
		"serv_area_id": "MP-1",
		"state": "MP",
		"Org_ID": "952000",
		"Program_Name": "Micronesian Legal Services, Inc.",
		"Addr1": "P.O. Box 5551 CHRB",
		"Addr2": "",
		"City": "Saipan",
		"State": "MP",
		"Zip": "96950",
		"": "http://www.mvlegal.org/"
	},
	{
		"serv_area_id": "MO-5",
		"state": "MO",
		"Org_ID": "526041",
		"Program_Name": "Mid-Missouri Legal Services Corporation",
		"Addr1": "1201 West Broadway",
		"Addr2": "",
		"City": "Columbia",
		"State": "MO",
		"Zip": "65203",
		"": "http://www.mils.org/"
	},
	{
		"serv_area_id": "PA-25",
		"state": "PA",
		"Org_ID": "339040",
		"Program_Name": "MidPenn Legal Services, Inc.",
		"Addr1": "213-A North Front Street",
		"Addr2": "",
		"City": "Harrisburg",
		"State": "PA",
		"Zip": "17101",
		"": "http://www.lsmo.org/Data/LegalServices/LegalService_129"
	},
	{
		"serv_area_id": "MS-10",
		"state": "MS",
		"Org_ID": "625071",
		"Program_Name": "Mississippi Center for Legal Services",
		"Addr1": "111 East Front Street",
		"Addr2": "P.O. Drawer 1728",
		"City": "Hattiesburg",
		"State": "MS",
		"Zip": "39403-1728",
		"": "http://midpenn.org/"
	},
	{
		"serv_area_id": "MT-1",
		"state": "MT",
		"Org_ID": "927000",
		"Program_Name": "Montana Legal Services Association",
		"Addr1": "616 Helena Avenue",
		"Addr2": "Suite 100",
		"City": "Helena",
		"State": "MT",
		"Zip": "59601",
		"": "http://www.mslegalservices.org/MS/index.cfm"
	},
	{
		"serv_area_id": "NY-7",
		"state": "NY",
		"Org_ID": "233070",
		"Program_Name": "Nassau/Suffolk Law Services Committee, Inc.",
		"Addr1": "One Helen Keller Way",
		"Addr2": "5th Floor",
		"City": "Hempstead",
		"State": "NY",
		"Zip": "11550",
		"": "http://www.mtlsa.org"
	},
	{
		"serv_area_id": "PA-8",
		"state": "PA",
		"Org_ID": "339060",
		"Program_Name": "Neighborhood Legal Services Association",
		"Addr1": "928 Penn Avenue",
		"Addr2": "",
		"City": "Pittsburgh",
		"State": "PA",
		"Zip": "15222-3799",
		"": "http://www.nslawservices.org/"
	},
	{
		"serv_area_id": "CA-30",
		"state": "CA",
		"Org_ID": "805180",
		"Program_Name": "Neighborhood Legal Services of Los Angeles County",
		"Addr1": "1102 E. Chevy Chase Drive",
		"Addr2": "",
		"City": "Glendale",
		"State": "CA",
		"Zip": "91205",
		"": "http://www.nlsa.us/"
	},
	{
		"serv_area_id": "DC-1",
		"state": "DC",
		"Org_ID": "309080",
		"Program_Name": "Neighborhood Legal Services Program of the District of Columbia",
		"Addr1": "680 Rhode Island Avenue, NE",
		"Addr2": "",
		"City": "Washington",
		"State": "DC",
		"Zip": "20002",
		"": "http://www.nls-la.org/"
	},
	{
		"serv_area_id": "NY-24",
		"state": "NY",
		"Org_ID": "233047",
		"Program_Name": "Neighborhood Legal Services, Inc.",
		"Addr1": "Main Seneca Building",
		"Addr2": "237 Main Street, 4th Floor",
		"City": "Buffalo",
		"State": "NY",
		"Zip": "14203-2473",
		"": "http://www.nlsp.org/"
	},
	{
		"serv_area_id": "NV-1",
		"state": "NV",
		"Org_ID": "829050",
		"Program_Name": "Nevada Legal Services, Inc.",
		"Addr1": "530 South 6th Street",
		"Addr2": "",
		"City": "Las Vegas",
		"State": "NV",
		"Zip": "89101",
		"": "http://www.nls.org/"
	},
	{
		"serv_area_id": "NM-5",
		"state": "NM",
		"Org_ID": "732010",
		"Program_Name": "New Mexico Legal Aid",
		"Addr1": "P O Box 25486",
		"Addr2": "301 Gold Ave. S.W.",
		"City": "Albuquerque",
		"State": "NM",
		"Zip": "87102-3245",
		"": "http://www.nlslaw.net/"
	},
	{
		"serv_area_id": "MS-9",
		"state": "MS",
		"Org_ID": "625040",
		"Program_Name": "North Mississippi Rural Legal Services, Inc.",
		"Addr1": "5 County Rd 1014",
		"Addr2": "P.O. Box 767",
		"City": "Oxford",
		"State": "MS",
		"Zip": "38655-0767",
		"": "http://www.nmlegalaid.org/"
	},
	{
		"serv_area_id": "PA-24",
		"state": "PA",
		"Org_ID": "339070",
		"Program_Name": "North Penn Legal Services, Inc.",
		"Addr1": "33 North Main Street",
		"Addr2": "Suite 200",
		"City": "Pittston",
		"State": "PA",
		"Zip": "18640",
		"": "http://www.nmrls.com/"
	},
	{
		"serv_area_id": "NJ-18",
		"state": "NJ",
		"Org_ID": "331050",
		"Program_Name": "Northeast New Jersey Legal Services Corporation",
		"Addr1": "574 Summit Avenue",
		"Addr2": "",
		"City": "Jersey City",
		"State": "NJ",
		"Zip": "07306-2797",
		"": "http://www.northpennlegal.org/"
	},
	{
		"serv_area_id": "WA-1",
		"state": "WA",
		"Org_ID": "948010",
		"Program_Name": "Northwest Justice Project",
		"Addr1": "401 Second Avenue South",
		"Addr2": "Suite 407",
		"City": "Seattle",
		"State": "WA",
		"Zip": "98104",
		"": "http://www.lsnj.org/directory.htm"
	},
	{
		"serv_area_id": "PA-26",
		"state": "PA",
		"Org_ID": "339111",
		"Program_Name": "Northwestern Legal Services",
		"Addr1": "1001 State Street",
		"Addr2": "Renaissance Center, Suite 700",
		"City": "Erie",
		"State": "PA",
		"Zip": "16501-1828",
		"": "http://www.nwjustice.org/"
	},
	{
		"serv_area_id": "NJ-12",
		"state": "NJ",
		"Org_ID": "331100",
		"Program_Name": "Ocean-Monmouth Legal Services, Inc.",
		"Addr1": "303 West Main Street",
		"Addr2": "Third Floor",
		"City": "Freehold",
		"State": "NJ",
		"Zip": "7728",
		"": "http://www.nwls.org/"
	},
	{
		"serv_area_id": "OH-17",
		"state": "OH",
		"Org_ID": "436070",
		"Program_Name": "Ohio State Legal Services",
		"Addr1": "555 Buttles Avenue",
		"Addr2": "",
		"City": "Columbus",
		"State": "OH",
		"Zip": "43215-1137",
		"": "http://www.lsnj.org/omls/index.htm"
	},
	{
		"serv_area_id": "OH-5",
		"state": "OH",
		"Org_ID": "436070",
		"Program_Name": "Ohio State Legal Services",
		"Addr1": "555 Buttles Avenue",
		"Addr2": "",
		"City": "Columbus",
		"State": "OH",
		"Zip": "43215-1137",
		"": "http://www.ohiolegalservices.org/OSLSA/PublicWeb"
	},
	{
		"serv_area_id": "PA-1",
		"state": "PA",
		"Org_ID": "339000",
		"Program_Name": "Philadelphia Legal Assistance Center",
		"Addr1": "42 South 15th Street",
		"Addr2": "Suite 500",
		"City": "Philadelphia",
		"State": "PA",
		"Zip": "19102",
		"": "http://www.oilsonline.org/"
	},
	{
		"serv_area_id": "ME-1",
		"state": "ME",
		"Org_ID": "120000",
		"Program_Name": "Pine Tree Legal Assistance, Inc.",
		"Addr1": "88 Federal Street",
		"Addr2": "P.O. Box 547",
		"City": "Portland",
		"State": "ME",
		"Zip": "04112-0547",
		"": "http://www.philalegal.org/"
	},
	{
		"serv_area_id": "IL-7",
		"state": "IL",
		"Org_ID": "514076",
		"Program_Name": "Prairie State Legal Services, Inc.",
		"Addr1": "303 North Main Street #600",
		"Addr2": "",
		"City": "Rockford",
		"State": "IL",
		"Zip": "61101",
		"": "http://www.ptla.org/index.html"
	},
	{
		"serv_area_id": "PR-1",
		"state": "PR",
		"Org_ID": "253010",
		"Program_Name": "Puerto Rico Legal Services, Inc.",
		"Addr1": "1859 Ave. Ponce de León-Pda 26",
		"Addr2": "Apartado 9134",
		"City": "San Juan",
		"State": "PR",
		"Zip": "00908-9134",
		"": "http://www.pslegal.org/"
	},
	{
		"serv_area_id": "RI-1",
		"state": "RI",
		"Org_ID": "140000",
		"Program_Name": "Rhode Island Legal Services, Inc.",
		"Addr1": "56 Pine Street",
		"Addr2": "4th Floor",
		"City": "Providence",
		"State": "RI",
		"Zip": "2903",
		"": "http://www.slpr.org"
	},
	{
		"serv_area_id": "SC-8",
		"state": "SC",
		"Org_ID": "641030",
		"Program_Name": "South Carolina  Legal Services, Inc.",
		"Addr1": "701 S Main Street",
		"Addr2": "",
		"City": "Greenville",
		"State": "SC",
		"Zip": "29601",
		"": "http://www.rils.org/"
	},
	{
		"serv_area_id": "MA-12",
		"state": "MA",
		"Org_ID": "122087",
		"Program_Name": "South Coastal Counties Legal Services",
		"Addr1": "P.O. Box 2507",
		"Addr2": "22 Bedford Street, 2nd Floor",
		"City": "Fall River",
		"State": "MA",
		"Zip": "2722",
		"": "http://www.sclegal.org/"
	},
	{
		"serv_area_id": "NJ-16",
		"state": "NJ",
		"Org_ID": "331020",
		"Program_Name": "South Jersey Legal Services, Inc.",
		"Addr1": "745 Market Street",
		"Addr2": "",
		"City": "Camden",
		"State": "NJ",
		"Zip": "08102-1117",
		"": "http://www.ncla.net/"
	},
	{
		"serv_area_id": "LA-1",
		"state": "LA",
		"Org_ID": "619081",
		"Program_Name": "Southeast Louisiana Legal Services Corporation",
		"Addr1": "P. O. Drawer 2867",
		"Addr2": "",
		"City": "Hammond",
		"State": "LA",
		"Zip": "70404-2867",
		"": "http://www.lsnj.org/sjls"
	},
	{
		"serv_area_id": "LA-12",
		"state": "LA",
		"Org_ID": "619081",
		"Program_Name": "Southeast Louisiana Legal Services Corporation",
		"Addr1": "P. O. Drawer 2867",
		"Addr2": "",
		"City": "Hammond",
		"State": "LA",
		"Zip": "70404-2867",
		"": "http://www.slls.org"
	},
	{
		"serv_area_id": "AZ-5",
		"state": "AZ",
		"Org_ID": "703050",
		"Program_Name": "Southern Arizona Legal Aid, Inc.",
		"Addr1": "2343 East Broadway",
		"Addr2": "Suite 200",
		"City": "Tucson",
		"State": "AZ",
		"Zip": "85719",
		"": "http://www.sazlegalaid.org/"
	},
	{
		"serv_area_id": "MN-5",
		"state": "MN",
		"Org_ID": "524030",
		"Program_Name": "Southern Minnesota Regional Legal Services, Inc.",
		"Addr1": "Alliance Bank Center",
		"Addr2": "55 E. 5th Street, Suite 1000",
		"City": "St. Paul",
		"State": "MN",
		"Zip": "55101-1448",
		"": "http://www.smrls.org/"
	},
	{
		"serv_area_id": "VA-15",
		"state": "VA",
		"Org_ID": "447020",
		"Program_Name": "Southwest Virginia Legal Aid Society, Inc.",
		"Addr1": "227 West Cherry Street",
		"Addr2": "",
		"City": "Marion",
		"State": "VA",
		"Zip": "24354",
		"": "http://www.svlas.org/"
	},
	{
		"serv_area_id": "PA-11",
		"state": "PA",
		"Org_ID": "339080",
		"Program_Name": "Southwestern Pennsylvania Legal Services, Inc.",
		"Addr1": "10 West Cherry Avenue",
		"Addr2": "",
		"City": "Washington",
		"State": "PA",
		"Zip": "15301",
		"": "http://www.palegalservices.org/finder/southwestern_pa_legal_aid.htm"
	},
	{
		"serv_area_id": "CT-1",
		"state": "CT",
		"Org_ID": "107000",
		"Program_Name": "Statewide Legal Services of Connecticut, Inc.",
		"Addr1": "1290 Silas Deane Highway",
		"Addr2": "Suite 3A",
		"City": "Wethersfield",
		"State": "CT",
		"Zip": "6109",
		"": "http://www.slsct.org/Home/PublicWeb"
	},
	{
		"serv_area_id": "TX-15",
		"state": "TX",
		"Org_ID": "744100",
		"Program_Name": "Texas RioGrande Legal Aid, Inc.",
		"Addr1": "300 South Texas Boulevard",
		"Addr2": "",
		"City": "Weslaco",
		"State": "TX",
		"Zip": "78596",
		"": "http://www.trla.org/"
	},
	{
		"serv_area_id": "OH-21",
		"state": "OH",
		"Org_ID": "436050",
		"Program_Name": "The Legal Aid Society of Cleveland",
		"Addr1": "1223 West Sixth Street",
		"Addr2": "",
		"City": "Cleveland",
		"State": "OH",
		"Zip": "44113-1354",
		"": "http://www.lasclev.org/"
	},
	{
		"serv_area_id": "FL-14",
		"state": "FL",
		"Org_ID": "610061",
		"Program_Name": "Three Rivers Legal Services, Inc.",
		"Addr1": "901 NW 8th Avenue",
		"Addr2": "Suite D-5",
		"City": "Gainesville",
		"State": "FL",
		"Zip": "32601",
		"": "http://www.trls.org/"
	},
	{
		"serv_area_id": "UT-1",
		"state": "UT",
		"Org_ID": "745000",
		"Program_Name": "Utah Legal Services, Inc.",
		"Addr1": "205 North 400 West",
		"Addr2": "",
		"City": "Salt Lake City",
		"State": "UT",
		"Zip": "84103-1125",
		"": "http://www.utahlegalservices.org"
	},
	{
		"serv_area_id": "VA-17",
		"state": "VA",
		"Org_ID": "447061",
		"Program_Name": "Virginia Legal Aid Society, Inc.",
		"Addr1": "513 Church Street",
		"Addr2": "P.O. Box 6200",
		"City": "Lynchburg",
		"State": "VA",
		"Zip": "24505-6200",
		"": "http://www.vlas.org/"
	},
	{
		"serv_area_id": "MA-11",
		"state": "MA",
		"Org_ID": "122007",
		"Program_Name": "Volunteer Lawyers Project of the Boston Bar Association",
		"Addr1": "99 Chauncy Street, Suite 400",
		"Addr2": "",
		"City": "Boston",
		"State": "MA",
		"Zip": "2111",
		"": "http://www.vlpnet.org/"
	},
	{
		"serv_area_id": "TN-7",
		"state": "TN",
		"Org_ID": "643061",
		"Program_Name": "West Tennessee Legal Services, Inc.",
		"Addr1": "210 W. Main Street",
		"Addr2": "P.O. Box 2066",
		"City": "Jackson",
		"State": "TN",
		"Zip": "38302-2066",
		"": "http://www.wtls.org/"
	},
	{
		"serv_area_id": "WI-2",
		"state": "WI",
		"Org_ID": "550020",
		"Program_Name": "Wisconsin Judicare, Inc.",
		"Addr1": "300 Third Street, Suite 210",
		"Addr2": "P.O. Box 6100",
		"City": "Wausau",
		"State": "WI",
		"Zip": "54402-6100",
		"": "http://www.judicare.org/"
	}
]
